[{"OBJECT_NAME":"ONEWEB-0356","OBJECT_ID":"2021-090E","EPOCH":"2025-10-13T08:02:06.406368","MEAN_MOTION":13.20769941,"ECCENTRICITY":0.00014002,"INCLINATION":87.9217,"RA_OF_ASC_NODE":323.6654,"ARG_OF_PERICENTER":69.6638,"MEAN_ANOMALY":290.4645,"EPHEMERIS_TYPE":0,"CLASSIFICATION_TYPE":"U","NORAD_CAT_ID":49283,"ELEMENT_SET_NO":999,"REV_AT_EPOCH":19724,"BSTAR":0.00010870803,"MEAN_MOTION_DOT":5.7e-7,"MEAN_MOTION_DDOT":0},{"OBJECT_NAME":"ONEWEB-0358","OBJECT_ID":"2021-090F","EPOCH":"2025-10-13T01:28:56.762112","MEAN_MOTION":13.20774719,"ECCENTRICITY":0.00019476,"INCLINATION":87.923,"RA_OF_ASC_NODE":323.7162,"ARG_OF_PERICENTER":90.2616,"MEAN_ANOMALY":269.8741,"EPHEMERIS_TYPE":0,"CLASSIFICATION_TYPE":"U","NORAD_CAT_ID":49284,"ELEMENT_SET_NO":999,"REV_AT_EPOCH":19793,"BSTAR":-0.00095648602,"MEAN_MOTION_DOT":-3.76e-6,"MEAN_MOTION_DDOT":0},{"OBJECT_NAME":"ONEWEB-0359","OBJECT_ID":"2021-090G","EPOCH":"2025-10-13T03:13:29.631072","MEAN_MOTION":13.20772353,"ECCENTRICITY":0.00022182,"INCLINATION":87.9218,"RA_OF_ASC_NODE":323.7064,"ARG_OF_PERICENTER":89.4413,"MEAN_ANOMALY":270.6974,"EPHEMERIS_TYPE":0,"CLASSIFICATION_TYPE":"U","NORAD_CAT_ID":49285,"ELEMENT_SET_NO":999,"REV_AT_EPOCH":19792,"BSTAR":0.0002850629,"MEAN_MOTION_DOT":1.29e-6,"MEAN_MOTION_DDOT":0},{"OBJECT_NAME":"ONEWEB-0360","OBJECT_ID":"2021-090H","EPOCH":"2025-10-13T08:27:07.238304","MEAN_MOTION":13.20773297,"ECCENTRICITY":0.00020545,"INCLINATION":87.922,"RA_OF_ASC_NODE":323.6719,"ARG_OF_PERICENTER":94.514,"MEAN_ANOMALY":265.6228,"EPHEMERIS_TYPE":0,"CLASSIFICATION_TYPE":"U","NORAD_CAT_ID":49286,"ELEMENT_SET_NO":999,"REV_AT_EPOCH":19726,"BSTAR":0.00022349458,"MEAN_MOTION_DOT":1.04e-6,"MEAN_MOTION_DDOT":0},{"OBJECT_NAME":"ONEWEB-0361","OBJECT_ID":"2021-090J","EPOCH":"2025-10-13T07:59:50.891424","MEAN_MOTION":13.20772916,"ECCENTRICITY":0.0001813,"INCLINATION":87.922,"RA_OF_ASC_NODE":323.6714,"ARG_OF_PERICENTER":92.0265,"MEAN_ANOMALY":268.1076,"EPHEMERIS_TYPE":0,"CLASSIFICATION_TYPE":"U","NORAD_CAT_ID":49287,"ELEMENT_SET_NO":999,"REV_AT_EPOCH":19771,"BSTAR":0.00016237356,"MEAN_MOTION_DOT":7.9e-7,"MEAN_MOTION_DDOT":0},{"OBJECT_NAME":"ONEWEB-0362","OBJECT_ID":"2021-090K","EPOCH":"2025-10-13T05:48:22.438368","MEAN_MOTION":13.19722918,"ECCENTRICITY":0.00020833,"INCLINATION":87.9267,"RA_OF_ASC_NODE":354.1141,"ARG_OF_PERICENTER":104.5622,"MEAN_ANOMALY":255.5741,"EPHEMERIS_TYPE":0,"CLASSIFICATION_TYPE":"U","NORAD_CAT_ID":49288,"ELEMENT_SET_NO":999,"REV_AT_EPOCH":19434,"BSTAR":-5.28787e-7,"MEAN_MOTION_DOT":1.3e-7,"MEAN_MOTION_DDOT":0},{"OBJECT_NAME":"ONEWEB-0363","OBJECT_ID":"2021-090L","EPOCH":"2025-10-13T08:22:33.829824","MEAN_MOTION":13.20773536,"ECCENTRICITY":0.00017285,"INCLINATION":87.9219,"RA_OF_ASC_NODE":323.6645,"ARG_OF_PERICENTER":85.517,"MEAN_ANOMALY":274.6161,"EPHEMERIS_TYPE":0,"CLASSIFICATION_TYPE":"U","NORAD_CAT_ID":49289,"ELEMENT_SET_NO":999,"REV_AT_EPOCH":19772,"BSTAR":0.00025560444,"MEAN_MOTION_DOT":1.17e-6,"MEAN_MOTION_DDOT":0},{"OBJECT_NAME":"ONEWEB-0364","OBJECT_ID":"2021-090M","EPOCH":"2025-10-13T03:49:51.101472","MEAN_MOTION":13.20772382,"ECCENTRICITY":0.00018214,"INCLINATION":87.922,"RA_OF_ASC_NODE":323.728,"ARG_OF_PERICENTER":92.3941,"MEAN_ANOMALY":267.7401,"EPHEMERIS_TYPE":0,"CLASSIFICATION_TYPE":"U","NORAD_CAT_ID":49290,"ELEMENT_SET_NO":999,"REV_AT_EPOCH":19883,"BSTAR":-5.6136334e-5,"MEAN_MOTION_DOT":-1.0e-7,"MEAN_MOTION_DDOT":0},{"OBJECT_NAME":"ONEWEB-0365","OBJECT_ID":"2021-090N","EPOCH":"2025-10-13T06:02:01.600224","MEAN_MOTION":13.19724818,"ECCENTRICITY":0.00018732,"INCLINATION":87.9273,"RA_OF_ASC_NODE":354.0689,"ARG_OF_PERICENTER":102.6974,"MEAN_ANOMALY":257.4369,"EPHEMERIS_TYPE":0,"CLASSIFICATION_TYPE":"U","NORAD_CAT_ID":49291,"ELEMENT_SET_NO":999,"REV_AT_EPOCH":19385,"BSTAR":-0.00021154064,"MEAN_MOTION_DOT":-7.2e-7,"MEAN_MOTION_DDOT":0},{"OBJECT_NAME":"ONEWEB-0366","OBJECT_ID":"2021-090P","EPOCH":"2025-10-13T04:55:40.236384","MEAN_MOTION":13.14502054,"ECCENTRICITY":0.00018831,"INCLINATION":87.9044,"RA_OF_ASC_NODE":338.9183,"ARG_OF_PERICENTER":95.9467,"MEAN_ANOMALY":264.1877,"EPHEMERIS_TYPE":0,"CLASSIFICATION_TYPE":"U","NORAD_CAT_ID":49292,"ELEMENT_SET_NO":999,"REV_AT_EPOCH":19511,"BSTAR":0.00026239515,"MEAN_MOTION_DOT":1.1e-6,"MEAN_MOTION_DDOT":0},{"OBJECT_NAME":"ONEWEB-0367","OBJECT_ID":"2021-090Q","EPOCH":"2025-10-13T08:20:18.288096","MEAN_MOTION":13.20772723,"ECCENTRICITY":0.00020342,"INCLINATION":87.9223,"RA_OF_ASC_NODE":323.6611,"ARG_OF_PERICENTER":100.2551,"MEAN_ANOMALY":259.8812,"EPHEMERIS_TYPE":0,"CLASSIFICATION_TYPE":"U","NORAD_CAT_ID":49293,"ELEMENT_SET_NO":999,"REV_AT_EPOCH":19724,"BSTAR":0.00028714345,"MEAN_MOTION_DOT":1.3e-6,"MEAN_MOTION_DDOT":0},{"OBJECT_NAME":"ONEWEB-0368","OBJECT_ID":"2021-090R","EPOCH":"2025-10-13T04:03:29.243808","MEAN_MOTION":13.20772364,"ECCENTRICITY":0.00011567,"INCLINATION":87.922,"RA_OF_ASC_NODE":323.7313,"ARG_OF_PERICENTER":102.6112,"MEAN_ANOMALY":257.5151,"EPHEMERIS_TYPE":0,"CLASSIFICATION_TYPE":"U","NORAD_CAT_ID":49294,"ELEMENT_SET_NO":999,"REV_AT_EPOCH":19837,"BSTAR":-1.7122165e-5,"MEAN_MOTION_DOT":6.0e-8,"MEAN_MOTION_DDOT":0},{"OBJECT_NAME":"ONEWEB-0369","OBJECT_ID":"2021-090S","EPOCH":"2025-10-13T05:55:11.324640","MEAN_MOTION":13.19723214,"ECCENTRICITY":0.0001858,"INCLINATION":87.927,"RA_OF_ASC_NODE":354.1014,"ARG_OF_PERICENTER":102.1338,"MEAN_ANOMALY":258.0003,"EPHEMERIS_TYPE":0,"CLASSIFICATION_TYPE":"U","NORAD_CAT_ID":49295,"ELEMENT_SET_NO":999,"REV_AT_EPOCH":19384,"BSTAR":-0.00012014926,"MEAN_MOTION_DOT":-3.5e-7,"MEAN_MOTION_DDOT":0},{"OBJECT_NAME":"ONEWEB-0370","OBJECT_ID":"2021-090T","EPOCH":"2025-10-13T03:06:40.660992","MEAN_MOTION":13.20772046,"ECCENTRICITY":0.00022499,"INCLINATION":87.9222,"RA_OF_ASC_NODE":323.7127,"ARG_OF_PERICENTER":95.9524,"MEAN_ANOMALY":264.1866,"EPHEMERIS_TYPE":0,"CLASSIFICATION_TYPE":"U","NORAD_CAT_ID":49296,"ELEMENT_SET_NO":999,"REV_AT_EPOCH":19725,"BSTAR":0.00021380796,"MEAN_MOTION_DOT":1.0e-6,"MEAN_MOTION_DDOT":0},{"OBJECT_NAME":"ONEWEB-0371","OBJECT_ID":"2021-090U","EPOCH":"2025-10-13T06:06:34.287264","MEAN_MOTION":13.19723647,"ECCENTRICITY":0.00019611,"INCLINATION":87.9269,"RA_OF_ASC_NODE":354.0875,"ARG_OF_PERICENTER":102.2018,"MEAN_ANOMALY":257.9334,"EPHEMERIS_TYPE":0,"CLASSIFICATION_TYPE":"U","NORAD_CAT_ID":49297,"ELEMENT_SET_NO":999,"REV_AT_EPOCH":19388,"BSTAR":-0.0001121688,"MEAN_MOTION_DOT":-3.2e-7,"MEAN_MOTION_DDOT":0},{"OBJECT_NAME":"ONEWEB-0372","OBJECT_ID":"2021-090V","EPOCH":"2025-10-13T08:17:48.810912","MEAN_MOTION":13.20769875,"ECCENTRICITY":0.00018542,"INCLINATION":87.9218,"RA_OF_ASC_NODE":323.6714,"ARG_OF_PERICENTER":98.9459,"MEAN_ANOMALY":261.1885,"EPHEMERIS_TYPE":0,"CLASSIFICATION_TYPE":"U","NORAD_CAT_ID":49298,"ELEMENT_SET_NO":999,"REV_AT_EPOCH":19725,"BSTAR":8.189319e-5,"MEAN_MOTION_DOT":4.6e-7,"MEAN_MOTION_DDOT":0},{"OBJECT_NAME":"ONEWEB-0373","OBJECT_ID":"2021-090W","EPOCH":"2025-10-13T03:29:22.437312","MEAN_MOTION":13.20774008,"ECCENTRICITY":0.00018966,"INCLINATION":87.9215,"RA_OF_ASC_NODE":323.7247,"ARG_OF_PERICENTER":92.5248,"MEAN_ANOMALY":267.6102,"EPHEMERIS_TYPE":0,"CLASSIFICATION_TYPE":"U","NORAD_CAT_ID":49299,"ELEMENT_SET_NO":999,"REV_AT_EPOCH":19841,"BSTAR":0.00014652021,"MEAN_MOTION_DOT":7.3e-7,"MEAN_MOTION_DDOT":0},{"OBJECT_NAME":"ONEWEB-0374","OBJECT_ID":"2021-090X","EPOCH":"2025-10-13T04:37:23.816064","MEAN_MOTION":13.14504735,"ECCENTRICITY":0.0001455,"INCLINATION":87.9043,"RA_OF_ASC_NODE":338.8964,"ARG_OF_PERICENTER":86.2312,"MEAN_ANOMALY":273.8984,"EPHEMERIS_TYPE":0,"CLASSIFICATION_TYPE":"U","NORAD_CAT_ID":49300,"ELEMENT_SET_NO":999,"REV_AT_EPOCH":19511,"BSTAR":-8.6881653e-5,"MEAN_MOTION_DOT":-1.9e-7,"MEAN_MOTION_DDOT":0},{"OBJECT_NAME":"ONEWEB-0375","OBJECT_ID":"2021-090Y","EPOCH":"2025-10-13T03:11:12.039936","MEAN_MOTION":13.20773861,"ECCENTRICITY":0.00018482,"INCLINATION":87.9218,"RA_OF_ASC_NODE":323.7071,"ARG_OF_PERICENTER":77.2615,"MEAN_ANOMALY":282.8725,"EPHEMERIS_TYPE":0,"CLASSIFICATION_TYPE":"U","NORAD_CAT_ID":49301,"ELEMENT_SET_NO":999,"REV_AT_EPOCH":19791,"BSTAR":0.00025970394,"MEAN_MOTION_DOT":1.19e-6,"MEAN_MOTION_DDOT":0},{"OBJECT_NAME":"ONEWEB-0376","OBJECT_ID":"2021-090Z","EPOCH":"2025-10-13T06:04:18.034464","MEAN_MOTION":13.197267,"ECCENTRICITY":0.00018411,"INCLINATION":87.9277,"RA_OF_ASC_NODE":354.0715,"ARG_OF_PERICENTER":107.1679,"MEAN_ANOMALY":252.9656,"EPHEMERIS_TYPE":0,"CLASSIFICATION_TYPE":"U","NORAD_CAT_ID":49302,"ELEMENT_SET_NO":999,"REV_AT_EPOCH":19388,"BSTAR":-9.8830792e-5,"MEAN_MOTION_DOT":-2.7e-7,"MEAN_MOTION_DDOT":0},{"OBJECT_NAME":"ONEWEB-0377","OBJECT_ID":"2021-090AA","EPOCH":"2025-10-13T08:18:13.453056","MEAN_MOTION":13.20769881,"ECCENTRICITY":0.00020859,"INCLINATION":87.9223,"RA_OF_ASC_NODE":323.6613,"ARG_OF_PERICENTER":92.2666,"MEAN_ANOMALY":267.8707,"EPHEMERIS_TYPE":0,"CLASSIFICATION_TYPE":"U","NORAD_CAT_ID":49303,"ELEMENT_SET_NO":999,"REV_AT_EPOCH":19793,"BSTAR":0.00012168039,"MEAN_MOTION_DOT":6.2e-7,"MEAN_MOTION_DDOT":0},{"OBJECT_NAME":"ONEWEB-0378","OBJECT_ID":"2021-090AB","EPOCH":"2025-10-13T03:22:46.416864","MEAN_MOTION":13.20770259,"ECCENTRICITY":0.00018443,"INCLINATION":87.9225,"RA_OF_ASC_NODE":323.7171,"ARG_OF_PERICENTER":91.7709,"MEAN_ANOMALY":268.3636,"EPHEMERIS_TYPE":0,"CLASSIFICATION_TYPE":"U","NORAD_CAT_ID":49304,"ELEMENT_SET_NO":999,"REV_AT_EPOCH":19717,"BSTAR":0.00016943069,"MEAN_MOTION_DOT":8.2e-7,"MEAN_MOTION_DDOT":0},{"OBJECT_NAME":"ONEWEB-0379","OBJECT_ID":"2021-090AC","EPOCH":"2025-10-13T04:30:32.048352","MEAN_MOTION":13.14503686,"ECCENTRICITY":0.0001752,"INCLINATION":87.9044,"RA_OF_ASC_NODE":338.9054,"ARG_OF_PERICENTER":98.9711,"MEAN_ANOMALY":261.1617,"EPHEMERIS_TYPE":0,"CLASSIFICATION_TYPE":"U","NORAD_CAT_ID":49305,"ELEMENT_SET_NO":999,"REV_AT_EPOCH":19511,"BSTAR":-0.00040405756,"MEAN_MOTION_DOT":-1.37e-6,"MEAN_MOTION_DDOT":0}]
